{"generatedAt":"2026-04-28T08:33:07.693456Z","satellites":[{"name":"ONEWEB-0504","tle1":"1 54122U 22138K   26118.08917058  .00000981  00000+0  24178-2 0  9997","tle2":"2 54122  87.9158 314.9537 0002100  86.8073 273.3300 13.19733630170227"},{"name":"ONEWEB-0505","tle1":"1 54123U 22138L   26118.01019310  .00000013  00000+0 -60363-7 0  9993","tle2":"2 54123  87.9162 314.9699 0002202  81.3480 278.7902 13.19726370170193"},{"name":"ONEWEB-0506","tle1":"1 54124U 22138M   26118.06074913  .00000011  00000+0 -36449-5 0  9993","tle2":"2 54124  87.9161 314.9568 0002025  83.6617 276.4746 13.19723937170195"},{"name":"ONEWEB-0507","tle1":"1 54125U 22138N   26118.00545647  .00000026  00000+0  32346-4 0  9991","tle2":"2 54125  87.9151 314.9847 0001921  82.8307 277.3044 13.19723615170235"},{"name":"ONEWEB-0508","tle1":"1 54126U 22138P   26118.00231306 -.00000026  00000+0 -96270-4 0  9994","tle2":"2 54126  87.9152 314.9847 0001989  75.8826 284.2527 13.19724485170216"},{"name":"ONEWEB-0509","tle1":"1 54127U 22138Q   26118.05286000  .00000055  00000+0  10520-3 0  9994","tle2":"2 54127  87.9163 314.9590 0001886  85.4129 274.7219 13.19723998170190"},{"name":"ONEWEB-0510","tle1":"1 54128U 22138R   26117.98050889  .00002795  00000+0  68418-2 0  9991","tle2":"2 54128  87.9144 284.4541 0001604 112.5581 247.5723 13.20758093172656"},{"name":"ONEWEB-0511","tle1":"1 54129U 22138S   26118.04969198  .00000061  00000+0  11925-3 0  9998","tle2":"2 54129  87.9162 314.9638 0002100  92.6322 267.5051 13.19726070170221"},{"name":"ONEWEB-0512","tle1":"1 54130U 22138T   26117.96598851  .00000109  00000+0  24088-3 0  9991","tle2":"2 54130  87.9151 314.9892 0002127  85.5505 274.5871 13.19725156170183"},{"name":"ONEWEB-0513","tle1":"1 54131U 22138U   26118.06798155 -.00000347  00000+0 -89195-3 0  9999","tle2":"2 54131  87.9162 314.9189 0002986  85.9036 274.2438 13.20266809170106"},{"name":"ONEWEB-0514","tle1":"1 54132U 22138V   26118.05758912 -.00000020  00000+0 -81208-4 0  9992","tle2":"2 54132  87.9157 314.9604 0001733  92.5910 267.5421 13.19724255170218"},{"name":"ONEWEB-0515","tle1":"1 54133U 22138W   26117.89209639  .00000009  00000+0 -10778-4 0  9991","tle2":"2 54133  87.9150 284.4636 0000912 100.0522 260.0714 13.20773250172665"},{"name":"ONEWEB-0516","tle1":"1 54134U 22138X   26118.10812065 -.00000183  00000+0 -48829-3 0  9991","tle2":"2 54134  87.9150 314.9613 0001780  84.7364 275.3972 13.19725404170227"},{"name":"ONEWEB-0517","tle1":"1 54135U 22138Y   26118.08759769  .00000025  00000+0  30429-4 0  9991","tle2":"2 54135  87.9153 314.9551 0001946  95.9350 264.2005 13.19724142170227"},{"name":"ONEWEB-0518","tle1":"1 54136U 22138Z   26118.10654637  .00000062  00000+0  12267-3 0  9993","tle2":"2 54136  87.9150 314.9637 0001787  81.7529 278.3806 13.19727748170224"},{"name":"ONEWEB-0519","tle1":"1 54137U 22138AA  26118.05600968  .00000094  00000+0  20120-3 0  9998","tle2":"2 54137  87.9163 314.9588 0001915  93.3333 266.8019 13.19725347170220"},{"name":"ONEWEB-0520","tle1":"1 54138U 22138AB  26118.09076459  .00000076  00000+0  15703-3 0  9996","tle2":"2 54138  87.9155 314.9540 0001975  81.7965 278.3392 13.19724715170217"},{"name":"ONEWEB-0521","tle1":"1 54139U 22138AC  26118.04810567  .00000074  00000+0  15264-3 0  9998","tle2":"2 54139  87.9162 314.9502 0001861  96.1302 264.0043 13.19724167170152"},{"name":"ONEWEB-0522","tle1":"1 54140U 22138AD  26118.10339951  .00000077  00000+0  16013-3 0  9996","tle2":"2 54140  87.9161 314.9407 0001935  85.4204 274.7149 13.19724583170204"},{"name":"ONEWEB-0523","tle1":"1 54141U 22138AE  26118.18251051  .00000107  00000+0  23171-3 0  9996","tle2":"2 54141  87.9144 284.4183 0001409 121.3187 238.8085 13.20770799172703"},{"name":"ONEWEB-0524","tle1":"1 54142U 22138AF  26118.17144867  .00000087  00000+0  18264-3 0  9996","tle2":"2 54142  87.9143 284.4175 0000958  82.2006 277.9236 13.20769920172703"},{"name":"ONEWEB-0525","tle1":"1 54143U 22138AG  26117.97072051  .00000081  00000+0  17026-3 0  9998","tle2":"2 54143  87.9158 314.9768 0001983  81.8858 278.2499 13.19723598170203"},{"name":"ONEWEB-0526","tle1":"1 54144U 22138AH  26118.00389235  .00000020  00000+0  16648-4 0  9992","tle2":"2 54144  87.9160 314.9699 0001779  85.0735 275.0601 13.19724949170181"},{"name":"ONEWEB-0529","tle1":"1 54145U 22138AJ  26118.00704720  .00000061  00000+0  12016-3 0  9992","tle2":"2 54145  87.9153 314.9823 0001928  81.6961 278.4390 13.19724889170200"},{"name":"ONEWEB-0531","tle1":"1 54146U 22138AK  26118.15724229 -.00000120  00000+0 -32782-3 0  9995","tle2":"2 54146  87.9140 284.4189 0001080 117.2473 242.8770 13.20771501172705"},{"name":"ONEWEB-0535","tle1":"1 54147U 22138AL  26117.96440116  .00000067  00000+0  13618-3 0  9999","tle2":"2 54147  87.9162 314.9712 0001663  99.2088 260.9233 13.19723997170212"},{"name":"ONEWEB-0536","tle1":"1 54148U 22138AM  26117.99310304  .00000005  00000+0 -19457-4 0  9999","tle2":"2 54148  87.9128 284.4799 0000887 116.7866 243.3358 13.20773639172672"},{"name":"ONEWEB-0527","tle1":"1 54642U 22166A   26117.83263698 -.00000045  00000+0 -14106-3 0  9995","tle2":"2 54642  87.9217 254.0205 0001811  98.5670 261.5669 13.21825447164880"},{"name":"ONEWEB-0528","tle1":"1 54643U 22166B   26118.06560084 -.00000036  00000+0 -11957-3 0  9992","tle2":"2 54643  87.9217 253.9781 0001928  92.3433 267.7922 13.21824706164928"},{"name":"ONEWEB-0539","tle1":"1 54644U 22166C   26118.10430699 -.00000083  00000+0 -23195-3 0  9995","tle2":"2 54644  87.9224 253.9390 0002112 102.8632 257.2738 13.21827264164928"},{"name":"ONEWEB-0540","tle1":"1 54645U 22166D   26118.11117134 -.00000037  00000+0 -12055-3 0  9995","tle2":"2 54645  87.9218 253.9712 0001977 102.1878 257.9477 13.21826668164916"},{"name":"ONEWEB-0542","tle1":"1 54646U 22166E   26118.11439740  .00000020  00000+0  15785-4 0  9990","tle2":"2 54646  87.9225 253.9348 0002166 104.9317 255.2057 13.21826953164922"},{"name":"ONEWEB-0545","tle1":"1 54647U 22166F   26118.07907014 -.00000023  00000+0 -86343-4 0  9993","tle2":"2 54647  87.9219 253.9578 0002291 109.7376 250.4006 13.21824251164883"},{"name":"ONEWEB-0580","tle1":"1 54648U 22166G   26118.12952595 -.00000024  00000+0 -89710-4 0  9996","tle2":"2 54648  87.9218 253.9477 0002077 110.4935 249.6422 13.21824179164930"},{"name":"ONEWEB-0582","tle1":"1 54649U 22166H   26118.09588272  .00000064  00000+0  12238-3 0  9992","tle2":"2 54649  87.9220 253.9470 0002207 109.9045 250.2327 13.21826637164907"},{"name":"ONEWEB-0583","tle1":"1 54650U 22166J   26118.10766765 -.00000050  00000+0 -15316-3 0  9998","tle2":"2 54650  87.9218 253.9678 0002001 102.9085 257.2273 13.21826972164915"},{"name":"ONEWEB-0584","tle1":"1 54651U 22166K   26118.12783249 -.00000263  00000+0 -66850-3 0  9992","tle2":"2 54651  87.9217 253.9505 0001919 106.3342 253.8003 13.21824646164903"},{"name":"ONEWEB-0585","tle1":"1 54652U 22166L   26118.07569032  .00000044  00000+0  73819-4 0  9998","tle2":"2 54652  87.9220 253.9458 0001815  95.6711 264.4630 13.21826119164901"},{"name":"ONEWEB-0586","tle1":"1 54653U 22166M   26118.08916356  .00000118  00000+0  25452-3 0  9996","tle2":"2 54653  87.9217 253.9690 0002042 103.1578 256.9784 13.21824381164900"},{"name":"ONEWEB-0587","tle1":"1 54654U 22166N   26118.09925350  .00000107  00000+0  22812-3 0  9997","tle2":"2 54654  87.9227 253.9358 0001658  89.9695 270.1629 13.21827475165067"},{"name":"ONEWEB-0589","tle1":"1 54655U 22166P   26118.08579865  .00000123  00000+0  26598-3 0  9996","tle2":"2 54655  87.9214 253.9572 0002442 118.4721 241.6659 13.21825197164921"},{"name":"ONEWEB-0590","tle1":"1 54656U 22166Q   26117.88380487  .00000033  00000+0  49538-4 0  9994","tle2":"2 54656  87.9224 253.9827 0001521 111.3943 248.7353 13.21826903164881"},{"name":"ONEWEB-0591","tle1":"1 54657U 22166R   26118.12280471  .00000011  00000+0 -59494-5 0  9995","tle2":"2 54657  87.9220 253.9537 0001840 101.9566 258.1774 13.21827731164945"},{"name":"ONEWEB-0592","tle1":"1 54658U 22166S   26118.12616769  .00000004  00000+0 -22442-4 0  9993","tle2":"2 54658  87.9229 253.9270 0001855 100.1284 260.0059 13.21827027164826"},{"name":"ONEWEB-0593","tle1":"1 54659U 22166T   26118.07233714 -.00000008  00000+0 -50222-4 0  9995","tle2":"2 54659  87.9220 253.9530 0002059 100.9278 259.2087 13.21825130164920"},{"name":"ONEWEB-0594","tle1":"1 54660U 22166U   26118.09252597  .00000052  00000+0  94066-4 0  9990","tle2":"2 54660  87.9216 253.9661 0001843  97.4668 262.6675 13.21824855164941"},{"name":"ONEWEB-0595","tle1":"1 54661U 22166V   26118.06895928 -.00000608  00000+0 -15049-2 0  9990","tle2":"2 54661  87.9226 253.9474 0001735  95.7326 264.4006 13.21826370164916"},{"name":"ONEWEB-0596","tle1":"1 54662U 22166W   26118.11944219  .00000024  00000+0  26320-4 0  9991","tle2":"2 54662  87.9220 253.9520 0001776  98.2713 261.8622 13.21827473164927"},{"name":"ONEWEB-0597","tle1":"1 54663U 22166X   26118.10094265  .00000035  00000+0  52322-4 0  9991","tle2":"2 54663  87.9214 253.9596 0002011 102.4387 257.6972 13.21827211164923"},{"name":"ONEWEB-0600","tle1":"1 54664U 22166Y   26118.08243425  .00000027  00000+0  34981-4 0  9995","tle2":"2 54664  87.9218 253.9546 0002099  97.0436 263.0937 13.21824646164890"},{"name":"ONEWEB-0601","tle1":"1 54665U 22166Z   26118.07402596 -.00000020  00000+0 -79445-4 0  9990","tle2":"2 54665  87.9217 253.9729 0002073 106.4303 253.7059 13.21824389165080"},{"name":"ONEWEB-0602","tle1":"1 54666U 22166AA  26118.11524265 -.00000071  00000+0 -20409-3 0  9995","tle2":"2 54666  87.9217 253.9708 0002144  96.4107 263.7271 13.21826970164935"},{"name":"ONEWEB-0603","tle1":"1 54667U 22166AB  26117.89403307  .00000006  00000+0 -17467-4 0  9991","tle2":"2 54667  87.9228 253.9667 0002006 101.1861 258.9498 13.21827527164835"},{"name":"ONEWEB-0604","tle1":"1 54668U 22166AC  26118.10935294 -.00000005  00000+0 -42659-4 0  9993","tle2":"2 54668  87.9229 253.9386 0001851  97.6508 262.4836 13.21827119164821"}]}